GPS BIIR-2  (PRN 13)    
1 24876U 97035A   26063.00132374  .00000020  00000+0  00000+0 0  9998
2 24876  55.9351 102.6869 0097934  56.2678 304.7419  2.00563957209843
GPS BIIR-5  (PRN 22)    
1 26407U 00040A   26063.09161405 -.00000002  00000+0  00000+0 0  9997
2 26407  54.8756 219.3340 0122710 302.5302  56.8324  2.00568911187844
GPS BIIR-8  (PRN 16)    
1 27663U 03005A   26063.09764979 -.00000002  00000+0  00000+0 0  9991
2 27663  54.9074 219.1417 0148732  52.7148  86.9176  2.00566281169207
GPS BIIR-11 (PRN 19)    
1 28190U 04009A   26062.93632316 -.00000018  00000+0  00000+0 0  9990
2 28190  54.9161 279.9387 0110940 169.0537  10.0125  2.00558102160839
GPS BIIR-13 (PRN 02)    
1 28474U 04045A   26062.59556058 -.00000091  00000+0  00000+0 0  9996
2 28474  55.1952 329.1518 0170861 312.7942  43.5969  2.00573334156302
GPS BIIRM-1 (PRN 17)    
1 28874U 05038A   26061.34676233 -.00000001  00000+0  00000+0 0  9994
2 28874  54.9646 277.4881 0128856 295.3112 199.7188  2.00573091149694
GPS BIIRM-2 (PRN 31)    
1 29486U 06042A   26063.07605259  .00000003  00000+0  00000+0 0  9993
2 29486  54.6982 155.5131 0106730  52.8789 147.8393  2.00575348142288
GPS BIIRM-3 (PRN 12)    
1 29601U 06052A   26062.71518354 -.00000005  00000+0  00000+0 0  9995
2 29601  54.9574 218.1844 0087880  89.3488 271.6075  2.00551577141290
GPS BIIRM-4 (PRN 15)    
1 32260U 07047A   26063.02203272  .00000000  00000+0  00000+0 0  9994
2 32260  54.0154  84.3992 0163602  85.9536 275.9759  2.00560739134704
GPS BIIRM-5 (PRN 29)    
1 32384U 07062A   26063.08505243 -.00000016  00000+0  00000+0 0  9995
2 32384  55.1150 278.3763 0032921 160.6577  12.9243  2.00553505133401
GPS BIIRM-6 (PRN 07)    
1 32711U 08012A   26062.44174323 -.00000002  00000+0  00000+0 0  9990
2 32711  54.4823 154.1506 0206918 246.1685 111.6763  2.00569135131632
GPS BIIRM-8 (PRN 05)    
1 35752U 09043A   26062.93163618 -.00000084  00000+0  00000+0 0  9992
2 35752  56.1479  31.5862 0051695  80.7054 288.9637  2.00560448121254
GPS BIIF-1  (PRN 25)    
1 36585U 10022A   26062.92419359 -.00000006  00000+0  00000+0 0  9995
2 36585  54.2890 212.8003 0127354  65.8755  55.1962  2.00557227115488
GPS BIIF-3  (PRN 24)    
1 38833U 12053A   26063.11837641  .00000006  00000+0  00000+0 0  9998
2 38833  53.5658 147.9052 0176935  64.7808 297.0848  2.00565801 97338
GPS BIIF-4  (PRN 27)    
1 39166U 13023A   26060.98893270  .00000006  00000+0  00000+0 0  9998
2 39166  54.5878 273.3391 0141552  49.8819 311.3944  2.00564153 93732
GPS BIIF-5  (PRN 30)    
1 39533U 14008A   26061.48588350 -.00000013  00000+0  00000+0 0  9995
2 39533  53.6376 153.6733 0082226 228.2234 131.0919  2.00552925 87544
GPS BIIF-6  (PRN 06)    
1 39741U 14026A   26062.76125815 -.00000097  00000+0  00000+0 0  9993
2 39741  56.5468 335.6247 0039878 324.4781  35.2898  2.00568709 86426
